FENGYUN 1C DEB          
1 37022U 99025EDE 17344.40538403  .00001597  00000-0  96054-3 0  9994
2 37022  98.4820  47.2646 0155885 212.4231 208.2057 14.02255665494044
